{
  "type": "FeatureCollection",
  "features": [
    {
      "type": "Feature",
      "properties": {
        "norad_id": 41330,
        "name": "COSMOS 2514 (751)",
        "group": "gnss",
        "lat": 29.906369079957468,
        "lon": 123.89448188180994,
        "alt_km": 19117.59706327032,
        "timestamp": "2025-12-13T15:35:12.349869+00:00",
        "meta_object_name": "COSMOS 2514 (751)",
        "meta_object_id": "2016-008A",
        "meta_epoch": "2025-12-11T02:40:55.560288",
        "meta_mean_motion": 2.13102604,
        "meta_eccentricity": 0.0012161,
        "meta_inclination": 65.1347,
        "meta_ra_of_asc_node": 319.4596,
        "meta_arg_of_pericenter": 220.0573,
        "meta_mean_anomaly": 139.8518,
        "meta_ephemeris_type": 0,
        "meta_classification_type": "U",
        "meta_norad_cat_id": 41330,
        "meta_element_set_no": 999,
        "meta_rev_at_epoch": 7661,
        "meta_bstar": 0,
        "meta_mean_motion_dot": -5.2e-07,
        "meta_mean_motion_ddot": 0,
        "tle_line1": "1 41330U 16008A   25345.11175417 -.00000052  00000+0  00000+0 0  9998",
        "tle_line2": "2 41330  65.1347 319.4596 0012161 220.0573 139.8518  2.13102604 76610"
      },
      "geometry": {
        "type": "Point",
        "coordinates": [
          123.89448188180994,
          29.906369079957468
        ]
      }
    },
    {
      "type": "Feature",
      "properties": {
        "norad_id": 41384,
        "name": "IRNSS-1F",
        "group": "gnss",
        "lat": -4.515205678067917,
        "lon": -11.08933971182026,
        "alt_km": 35749.134654078276,
        "timestamp": "2025-12-13T15:35:12.349881+00:00",
        "meta_object_name": "IRNSS-1F",
        "meta_object_id": "2016-015A",
        "meta_epoch": "2025-12-12T22:11:41.184672",
        "meta_mean_motion": 1.00272627,
        "meta_eccentricity": 0.00225576,
        "meta_inclination": 4.8811,
        "meta_ra_of_asc_node": 101.2957,
        "meta_arg_of_pericenter": 180.6995,
        "meta_mean_anomaly": 165.1529,
        "meta_ephemeris_type": 0,
        "meta_classification_type": "U",
        "meta_norad_cat_id": 41384,
        "meta_element_set_no": 999,
        "meta_rev_at_epoch": 3579,
        "meta_bstar": 0,
        "meta_mean_motion_dot": 1.71e-06,
        "meta_mean_motion_ddot": 0,
        "tle_line1": "1 41384U 16015A   25346.92478223  .00000171  00000+0  00000+0 0  9997",
        "tle_line2": "2 41384   4.8811 101.2957 0022557 180.6995 165.1529  1.00272627 35798"
      },
      "geometry": {
        "type": "Point",
        "coordinates": [
          -11.08933971182026,
          -4.515205678067917
        ]
      }
    },
    {
      "type": "Feature",
      "properties": {
        "norad_id": 41434,
        "name": "BEIDOU-2 IGSO-6 (C13)",
        "group": "gnss",
        "lat": 8.553489221702426,
        "lon": 44.90372994281683,
        "alt_km": 35976.2751379605,
        "timestamp": "2025-12-13T15:35:12.349893+00:00",
        "meta_object_name": "BEIDOU-2 IGSO-6 (C13)",
        "meta_object_id": "2016-021A",
        "meta_epoch": "2025-12-11T15:29:12.615360",
        "meta_mean_motion": 1.00293077,
        "meta_eccentricity": 0.00608616,
        "meta_inclination": 59.9644,
        "meta_ra_of_asc_node": 39.9082,
        "meta_arg_of_pericenter": 229.9753,
        "meta_mean_anomaly": 135.9177,
        "meta_ephemeris_type": 0,
        "meta_classification_type": "U",
        "meta_norad_cat_id": 41434,
        "meta_element_set_no": 999,
        "meta_rev_at_epoch": 3560,
        "meta_bstar": 0,
        "meta_mean_motion_dot": -1.62e-06,
        "meta_mean_motion_ddot": 0,
        "tle_line1": "1 41434U 16021A   25345.64528490 -.00000162  00000+0  00000+0 0  9991",
        "tle_line2": "2 41434  59.9644  39.9082 0060861 229.9753 135.9177  1.00293077 35600"
      },
      "geometry": {
        "type": "Point",
        "coordinates": [
          44.90372994281683,
          8.553489221702426
        ]
      }
    },
    {
      "type": "Feature",
      "properties": {
        "norad_id": 41469,
        "name": "IRNSS-1G",
        "group": "gnss",
        "lat": -1.309853598556777,
        "lon": 85.7865905718153,
        "alt_km": 35773.218996012125,
        "timestamp": "2025-12-13T15:35:12.349904+00:00",
        "meta_object_name": "IRNSS-1G",
        "meta_object_id": "2016-027A",
        "meta_epoch": "2025-12-12T21:51:51.512832",
        "meta_mean_motion": 1.0028008,
        "meta_eccentricity": 0.000258,
        "meta_inclination": 4.7341,
        "meta_ra_of_asc_node": 102.0928,
        "meta_arg_of_pericenter": 335.8281,
        "meta_mean_anomaly": 101.2265,
        "meta_ephemeris_type": 0,
        "meta_classification_type": "U",
        "meta_norad_cat_id": 41469,
        "meta_element_set_no": 999,
        "meta_rev_at_epoch": 3531,
        "meta_bstar": 0,
        "meta_mean_motion_dot": -3.22e-06,
        "meta_mean_motion_ddot": 0,
        "tle_line1": "1 41469U 16027A   25346.91101288 -.00000322  00000+0  00000+0 0  9996",
        "tle_line2": "2 41469   4.7341 102.0928 0002580 335.8281 101.2265  1.00280080 35310"
      },
      "geometry": {
        "type": "Point",
        "coordinates": [
          85.7865905718153,
          -1.309853598556777
        ]
      }
    },
    {
      "type": "Feature",
      "properties": {
        "norad_id": 41549,
        "name": "GSAT0211 (GALILEO 14)",
        "group": "gnss",
        "lat": 38.197260067394396,
        "lon": 13.598144148930635,
        "alt_km": 23222.33852236204,
        "timestamp": "2025-12-13T15:35:12.349916+00:00",
        "meta_object_name": "GSAT0211 (GALILEO 14)",
        "meta_object_id": "2016-030A",
        "meta_epoch": "2025-12-11T02:09:03.353760",
        "meta_mean_motion": 1.70473055,
        "meta_eccentricity": 0.00041282,
        "meta_inclination": 55.1527,
        "meta_ra_of_asc_node": 226.8689,
        "meta_arg_of_pericenter": 18.4657,
        "meta_mean_anomaly": 341.6286,
        "meta_ephemeris_type": 0,
        "meta_classification_type": "U",
        "meta_norad_cat_id": 41549,
        "meta_element_set_no": 999,
        "meta_rev_at_epoch": 5946,
        "meta_bstar": 0,
        "meta_mean_motion_dot": 9e-08,
        "meta_mean_motion_ddot": 0,
        "tle_line1": "1 41549U 16030A   25345.08962215  .00000009  00000+0  00000+0 0  9992",
        "tle_line2": "2 41549  55.1527 226.8689 0004128  18.4657 341.6286  1.70473055 59463"
      },
      "geometry": {
        "type": "Point",
        "coordinates": [
          13.598144148930635,
          38.197260067394396
        ]
      }
    },
    {
      "type": "Feature",
      "properties": {
        "norad_id": 41550,
        "name": "GSAT0210 (GALILEO 13)",
        "group": "gnss",
        "lat": -21.830619235545118,
        "lon": -149.38697850512742,
        "alt_km": 23225.22179486488,
        "timestamp": "2025-12-13T15:35:12.349926+00:00",
        "meta_object_name": "GSAT0210 (GALILEO 13)",
        "meta_object_id": "2016-030B",
        "meta_epoch": "2025-12-11T08:19:41.751264",
        "meta_mean_motion": 1.70473653,
        "meta_eccentricity": 0.00011945,
        "meta_inclination": 55.152,
        "meta_ra_of_asc_node": 226.8599,
        "meta_arg_of_pericenter": 242.2312,
        "meta_mean_anomaly": 117.8354,
        "meta_ephemeris_type": 0,
        "meta_classification_type": "U",
        "meta_norad_cat_id": 41550,
        "meta_element_set_no": 999,
        "meta_rev_at_epoch": 5946,
        "meta_bstar": 0,
        "meta_mean_motion_dot": 1e-07,
        "meta_mean_motion_ddot": 0,
        "tle_line1": "1 41550U 16030B   25345.34701101  .00000010  00000+0  00000+0 0  9990",
        "tle_line2": "2 41550  55.1520 226.8599 0001194 242.2312 117.8354  1.70473653 59466"
      },
      "geometry": {
        "type": "Point",
        "coordinates": [
          -149.38697850512742,
          -21.830619235545118
        ]
      }
    },
    {
      "type": "Feature",
      "properties": {
        "norad_id": 41586,
        "name": "BEIDOU-2 G7 (C03)",
        "group": "gnss",
        "lat": -0.010370783583782323,
        "lon": 66.78154337591383,
        "alt_km": 35768.30428589605,
        "timestamp": "2025-12-13T15:35:12.349940+00:00",
        "meta_object_name": "BEIDOU-2 G7 (C03)",
        "meta_object_id": "2016-037A",
        "meta_epoch": "2025-12-13T00:54:38.886048",
        "meta_mean_motion": 1.0026712,
        "meta_eccentricity": 0.00045311,
        "meta_inclination": 1.7581,
        "meta_ra_of_asc_node": 67.7678,
        "meta_arg_of_pericenter": 358.8188,
        "meta_mean_anomaly": 139.4696,
        "meta_ephemeris_type": 0,
        "meta_classification_type": "U",
        "meta_norad_cat_id": 41586,
        "meta_element_set_no": 999,
        "meta_rev_at_epoch": 502,
        "meta_bstar": 0,
        "meta_mean_motion_dot": -3.4e-06,
        "meta_mean_motion_ddot": 0,
        "tle_line1": "1 41586U 16037A   25347.03795007 -.00000340  00000+0  00000+0 0  9999",
        "tle_line2": "2 41586   1.7581  67.7678 0004531 358.8188 139.4696  1.00267120  5027"
      },
      "geometry": {
        "type": "Point",
        "coordinates": [
          66.78154337591383,
          -0.010370783583782323
        ]
      }
    }
  ]
}